[{"OBJECT_NAME":"ONEWEB-0205","OBJECT_ID":"2021-031S","EPOCH":"2026-06-11T01:09:35.460576","MEAN_MOTION":13.14504529,"ECCENTRICITY":0.0002027,"INCLINATION":87.897,"RA_OF_ASC_NODE":290.9197,"ARG_OF_PERICENTER":107.4619,"MEAN_ANOMALY":252.6733,"EPHEMERIS_TYPE":0,"CLASSIFICATION_TYPE":"U","NORAD_CAT_ID":48226,"ELEMENT_SET_NO":999,"REV_AT_EPOCH":24746,"BSTAR":0.0005005,"MEAN_MOTION_DOT":1.98e-06,"MEAN_MOTION_DDOT":0.0},{"OBJECT_NAME":"ONEWEB-0206","OBJECT_ID":"2021-031T","EPOCH":"2026-06-11T02:20:23.809920","MEAN_MOTION":13.14503586,"ECCENTRICITY":0.0001814,"INCLINATION":87.8963,"RA_OF_ASC_NODE":290.9117,"ARG_OF_PERICENTER":95.5402,"MEAN_ANOMALY":264.5934,"EPHEMERIS_TYPE":0,"CLASSIFICATION_TYPE":"U","NORAD_CAT_ID":48227,"ELEMENT_SET_NO":999,"REV_AT_EPOCH":24742,"BSTAR":9.390800000000001e-05,"MEAN_MOTION_DOT":4.8e-07,"MEAN_MOTION_DDOT":0.0},{"OBJECT_NAME":"ONEWEB-0182","OBJECT_ID":"2021-031U","EPOCH":"2026-06-11T02:13:32.664288","MEAN_MOTION":13.1450247,"ECCENTRICITY":0.0002094,"INCLINATION":87.8959,"RA_OF_ASC_NODE":290.9206,"ARG_OF_PERICENTER":96.8824,"MEAN_ANOMALY":263.2545,"EPHEMERIS_TYPE":0,"CLASSIFICATION_TYPE":"U","NORAD_CAT_ID":48228,"ELEMENT_SET_NO":999,"REV_AT_EPOCH":24763,"BSTAR":-0.00020590000000000002,"MEAN_MOTION_DOT":-6.4e-07,"MEAN_MOTION_DDOT":0.0},{"OBJECT_NAME":"ONEWEB-0186","OBJECT_ID":"2021-031V","EPOCH":"2026-06-11T06:08:44.826432","MEAN_MOTION":13.1450261,"ECCENTRICITY":0.0001966,"INCLINATION":87.8968,"RA_OF_ASC_NODE":290.878,"ARG_OF_PERICENTER":103.0158,"MEAN_ANOMALY":257.1192,"EPHEMERIS_TYPE":0,"CLASSIFICATION_TYPE":"U","NORAD_CAT_ID":48229,"ELEMENT_SET_NO":999,"REV_AT_EPOCH":24760,"BSTAR":0.00044257000000000004,"MEAN_MOTION_DOT":1.77e-06,"MEAN_MOTION_DDOT":0.0},{"OBJECT_NAME":"ONEWEB-0181","OBJECT_ID":"2021-031W","EPOCH":"2026-06-11T01:57:33.768576","MEAN_MOTION":13.14502956,"ECCENTRICITY":0.0001936,"INCLINATION":87.895,"RA_OF_ASC_NODE":290.9434,"ARG_OF_PERICENTER":106.675,"MEAN_ANOMALY":253.4593,"EPHEMERIS_TYPE":0,"CLASSIFICATION_TYPE":"U","NORAD_CAT_ID":48230,"ELEMENT_SET_NO":999,"REV_AT_EPOCH":24743,"BSTAR":-0.0005871100000000001,"MEAN_MOTION_DOT":-2.05e-06,"MEAN_MOTION_DDOT":0.0},{"OBJECT_NAME":"ONEWEB-0188","OBJECT_ID":"2021-031X","EPOCH":"2026-06-11T02:52:22.094688","MEAN_MOTION":13.14503758,"ECCENTRICITY":0.000194,"INCLINATION":87.8952,"RA_OF_ASC_NODE":290.9348,"ARG_OF_PERICENTER":101.0251,"MEAN_ANOMALY":259.1097,"EPHEMERIS_TYPE":0,"CLASSIFICATION_TYPE":"U","NORAD_CAT_ID":48231,"ELEMENT_SET_NO":999,"REV_AT_EPOCH":24734,"BSTAR":0.00057877,"MEAN_MOTION_DOT":2.27e-06,"MEAN_MOTION_DDOT":0.0},{"OBJECT_NAME":"ONEWEB-0220","OBJECT_ID":"2021-031Y","EPOCH":"2026-06-11T03:49:25.912416","MEAN_MOTION":13.14502065,"ECCENTRICITY":0.0002173,"INCLINATION":87.8967,"RA_OF_ASC_NODE":290.8989,"ARG_OF_PERICENTER":105.7598,"MEAN_ANOMALY":254.3771,"EPHEMERIS_TYPE":0,"CLASSIFICATION_TYPE":"U","NORAD_CAT_ID":48232,"ELEMENT_SET_NO":999,"REV_AT_EPOCH":24761,"BSTAR":-0.00053811,"MEAN_MOTION_DOT":-1.87e-06,"MEAN_MOTION_DDOT":0.0},{"OBJECT_NAME":"ONEWEB-0165","OBJECT_ID":"2021-031Z","EPOCH":"2026-06-11T02:40:56.254080","MEAN_MOTION":13.14501301,"ECCENTRICITY":0.0001848,"INCLINATION":87.8961,"RA_OF_ASC_NODE":290.9218,"ARG_OF_PERICENTER":112.8933,"MEAN_ANOMALY":247.2392,"EPHEMERIS_TYPE":0,"CLASSIFICATION_TYPE":"U","NORAD_CAT_ID":48233,"ELEMENT_SET_NO":999,"REV_AT_EPOCH":24756,"BSTAR":0.00057495,"MEAN_MOTION_DOT":2.26e-06,"MEAN_MOTION_DDOT":0.0},{"OBJECT_NAME":"ONEWEB-0199","OBJECT_ID":"2021-031AA","EPOCH":"2026-06-11T02:18:06.763104","MEAN_MOTION":13.14503129,"ECCENTRICITY":0.0001854,"INCLINATION":87.8967,"RA_OF_ASC_NODE":290.9104,"ARG_OF_PERICENTER":95.0494,"MEAN_ANOMALY":265.0848,"EPHEMERIS_TYPE":0,"CLASSIFICATION_TYPE":"U","NORAD_CAT_ID":48234,"ELEMENT_SET_NO":999,"REV_AT_EPOCH":24746,"BSTAR":-3.0236000000000003e-05,"MEAN_MOTION_DOT":2e-08,"MEAN_MOTION_DDOT":0.0},{"OBJECT_NAME":"ONEWEB-0203","OBJECT_ID":"2021-031AB","EPOCH":"2026-06-11T02:04:24.742272","MEAN_MOTION":13.14502277,"ECCENTRICITY":0.0001729,"INCLINATION":87.8965,"RA_OF_ASC_NODE":290.9159,"ARG_OF_PERICENTER":101.2566,"MEAN_ANOMALY":258.8759,"EPHEMERIS_TYPE":0,"CLASSIFICATION_TYPE":"U","NORAD_CAT_ID":48235,"ELEMENT_SET_NO":999,"REV_AT_EPOCH":24747,"BSTAR":-0.00050337,"MEAN_MOTION_DOT":-1.74e-06,"MEAN_MOTION_DDOT":0.0},{"OBJECT_NAME":"ONEWEB-0197","OBJECT_ID":"2021-031AC","EPOCH":"2026-06-11T01:27:40.592736","MEAN_MOTION":13.14503845,"ECCENTRICITY":0.0002169,"INCLINATION":87.8957,"RA_OF_ASC_NODE":290.9075,"ARG_OF_PERICENTER":98.6839,"MEAN_ANOMALY":261.4537,"EPHEMERIS_TYPE":0,"CLASSIFICATION_TYPE":"U","NORAD_CAT_ID":48236,"ELEMENT_SET_NO":999,"REV_AT_EPOCH":24738,"BSTAR":-9.731900000000001e-05,"MEAN_MOTION_DOT":-2.3e-07,"MEAN_MOTION_DDOT":0.0},{"OBJECT_NAME":"ONEWEB-0194","OBJECT_ID":"2021-031AD","EPOCH":"2026-06-11T02:47:48.048576","MEAN_MOTION":13.1450215,"ECCENTRICITY":0.000171,"INCLINATION":87.896,"RA_OF_ASC_NODE":290.9182,"ARG_OF_PERICENTER":96.2218,"MEAN_ANOMALY":263.9107,"EPHEMERIS_TYPE":0,"CLASSIFICATION_TYPE":"U","NORAD_CAT_ID":48237,"ELEMENT_SET_NO":999,"REV_AT_EPOCH":24756,"BSTAR":0.00052394,"MEAN_MOTION_DOT":2.07e-06,"MEAN_MOTION_DDOT":0.0},{"OBJECT_NAME":"ONEWEB-0193","OBJECT_ID":"2021-031AE","EPOCH":"2026-06-11T01:21:01.239840","MEAN_MOTION":13.14502422,"ECCENTRICITY":0.0001566,"INCLINATION":87.8962,"RA_OF_ASC_NODE":290.9209,"ARG_OF_PERICENTER":89.4599,"MEAN_ANOMALY":270.671,"EPHEMERIS_TYPE":0,"CLASSIFICATION_TYPE":"U","NORAD_CAT_ID":48238,"ELEMENT_SET_NO":999,"REV_AT_EPOCH":24750,"BSTAR":0.00011237,"MEAN_MOTION_DOT":5.4e-07,"MEAN_MOTION_DDOT":0.0},{"OBJECT_NAME":"ONEWEB-0191","OBJECT_ID":"2021-031AF","EPOCH":"2026-06-11T01:37:00.670368","MEAN_MOTION":13.14502483,"ECCENTRICITY":0.0002056,"INCLINATION":87.8967,"RA_OF_ASC_NODE":290.9166,"ARG_OF_PERICENTER":96.8184,"MEAN_ANOMALY":263.318,"EPHEMERIS_TYPE":0,"CLASSIFICATION_TYPE":"U","NORAD_CAT_ID":48239,"ELEMENT_SET_NO":999,"REV_AT_EPOCH":24736,"BSTAR":-0.00033195999999999996,"MEAN_MOTION_DOT":-1.1e-06,"MEAN_MOTION_DDOT":0.0},{"OBJECT_NAME":"ONEWEB-0195","OBJECT_ID":"2021-031AG","EPOCH":"2026-06-11T02:53:29.614560","MEAN_MOTION":13.14501245,"ECCENTRICITY":0.000193,"INCLINATION":87.8966,"RA_OF_ASC_NODE":290.9071,"ARG_OF_PERICENTER":112.6174,"MEAN_ANOMALY":247.516,"EPHEMERIS_TYPE":0,"CLASSIFICATION_TYPE":"U","NORAD_CAT_ID":48240,"ELEMENT_SET_NO":999,"REV_AT_EPOCH":24735,"BSTAR":0.00051798,"MEAN_MOTION_DOT":2.05e-06,"MEAN_MOTION_DDOT":0.0},{"OBJECT_NAME":"ONEWEB-0201","OBJECT_ID":"2021-031AH","EPOCH":"2026-06-11T02:36:34.244352","MEAN_MOTION":13.14504174,"ECCENTRICITY":0.0002209,"INCLINATION":87.8958,"RA_OF_ASC_NODE":290.9259,"ARG_OF_PERICENTER":99.8067,"MEAN_ANOMALY":260.3313,"EPHEMERIS_TYPE":0,"CLASSIFICATION_TYPE":"U","NORAD_CAT_ID":48241,"ELEMENT_SET_NO":999,"REV_AT_EPOCH":24758,"BSTAR":0.00045349,"MEAN_MOTION_DOT":1.81e-06,"MEAN_MOTION_DDOT":0.0}]