1 48226U 21031S 26162.04832709 .00000198 00000+0 50050-3 0 9999 
2 48226 87.8970 290.9197 0002027 107.4619 252.6733 13.14504529247464 
1 48227U 21031T 26162.09749780 .00000048 00000+0 93908-4 0 9995 
2 48227 87.8963 290.9117 0001814 95.5402 264.5934 13.14503586247422 
1 48228U 21031U 26162.09273917 -.00000064 00000+0 -20590-3 0 9996 
2 48228 87.8959 290.9206 0002094 96.8824 263.2545 13.14502470247638 
1 48229U 21031V 26162.25607438 .00000177 00000+0 44257-3 0 9993 
2 48229 87.8968 290.8780 0001966 103.0158 257.1192 13.14502610247606 
1 48230U 21031W 26162.08164084 -.00000205 00000+0 -58711-3 0 9995 
2 48230 87.8950 290.9434 0001936 106.6750 253.4593 13.14502956247438 
1 48231U 21031X 26162.11970017 .00000227 00000+0 57877-3 0 9995 
2 48231 87.8952 290.9348 0001940 101.0251 259.1097 13.14503758247348 
1 48232U 21031Y 26162.15932769 -.00000187 00000+0 -53811-3 0 9993 
2 48232 87.8967 290.8989 0002173 105.7598 254.3771 13.14502065247615 
1 48233U 21031Z 26162.11176220 .00000226 00000+0 57495-3 0 9996 
2 48233 87.8961 290.9218 0001848 112.8933 247.2392 13.14501301247562 
1 48234U 21031AA 26162.09591161 .00000002 00000+0 -30236-4 0 9997 
2 48234 87.8967 290.9104 0001854 95.0494 265.0848 13.14503129247467 
1 48235U 21031AB 26162.08639748 -.00000174 00000+0 -50337-3 0 9995 
2 48235 87.8965 290.9159 0001729 101.2566 258.8759 13.14502277247472 
1 48236U 21031AC 26162.06088649 -.00000023 00000+0 -97319-4 0 9997 
2 48236 87.8957 290.9075 0002169 98.6839 261.4537 13.14503845247388 
1 48237U 21031AD 26162.11652834 .00000207 00000+0 52394-3 0 9992 
2 48237 87.8960 290.9182 0001710 96.2218 263.9107 13.14502150247566 
1 48238U 21031AE 26162.05626435 .00000054 00000+0 11237-3 0 9995 
2 48238 87.8962 290.9209 0001566 89.4599 270.6710 13.14502422247505 
1 48239U 21031AF 26162.06736887 -.00000110 00000+0 -33196-3 0 9993 
2 48239 87.8967 290.9166 0002056 96.8184 263.3180 13.14502483247361 
1 48240U 21031AG 26162.12048165 .00000205 00000+0 51798-3 0 9998 
2 48240 87.8966 290.9071 0001930 112.6174 247.5160 13.14501245247359 
1 48241U 21031AH 26162.10872968 .00000181 00000+0 45349-3 0 9991 
2 48241 87.8958 290.9259 0002209 99.8067 260.3313 13.14504174247588 
